NORAD_CAT_ID,OBJECT_NAME,OBJECT_TYPE,EPOCH,MEAN_MOTION,ECCENTRICITY,INCLINATION,RA_OF_ASC_NODE,ARG_OF_PERICENTER,MEAN_ANOMALY,BSTAR,MEAN_MOTION_DOT,MEAN_MOTION_DDOT,TLE_LINE0,TLE_LINE1,TLE_LINE2,SEMIMAJOR_AXIS,PERIOD,APOGEE,PERIGEE,DECAYED
52702.0,STARLINK-4033,PAYLOAD,2023-06-04 21:06:13,15.0884055,0.0001011,53.2182,357.8737,86.6321,273.4787,0.00014736,2.058e-05,0.0,0 STARLINK-4033,1 52702U 22053AY  23155.87932244  .00002058  00000-0  14736-3 0  9992,2 52702  53.2182 357.8737 0001011  86.6321 273.4787 15.08840550 58791,6917.879,95.438,540.443,539.044,0.0
52702.0,STARLINK-4033,PAYLOAD,2023-06-05 13:00:05,15.08838371,9.76e-05,53.2177,354.9004,103.6539,256.4562,8.1268e-05,1.006e-05,0.0,0 STARLINK-4033,1 52702U 22053AY  23156.54172550  .00001006  00000-0  81268-4 0  9990,2 52702  53.2177 354.9004 0000976 103.6539 256.4562 15.08838371 58891,6917.885,95.438,540.426,539.075,0.0
52702.0,STARLINK-4033,PAYLOAD,2023-06-05 19:21:37,15.08843993,0.0001065,53.2181,353.711,81.0691,279.0422,3.7789e-05,3.14e-06,0.0,0 STARLINK-4033,1 52702U 22053AY  23156.80668441  .00000314  00000-0  37789-4 0  9998,2 52702  53.2181 353.7110 0001065  81.0691 279.0422 15.08843993 58936,6917.868,95.437,540.47,538.996,0.0
52702.0,STARLINK-4033,PAYLOAD,2023-06-05 22:32:23,15.0884831,0.0001017,53.2181,353.1158,85.2297,274.8811,8.0641e-05,9.96e-06,0.0,0 STARLINK-4033,1 52702U 22053AY  23156.93915991  .00000996  00000-0  80641-4 0  9998,2 52702  53.2181 353.1158 0001017  85.2297 274.8811 15.08848310 58547,6917.855,95.437,540.424,539.016,0.0
52702.0,STARLINK-4033,PAYLOAD,2023-06-06 12:50:52,15.08839028,0.0001034,53.2181,350.4399,81.0222,279.0887,5.5083e-05,5.89e-06,0.0,0 STARLINK-4033,1 52702U 22053AY  23157.53532614  .00000589  00000-0  55083-4 0  9992,2 52702  53.2181 350.4399 0001034  81.0222 279.0887 15.08839028 59047,6917.883,95.438,540.464,539.033,0.0
52702.0,STARLINK-4033,PAYLOAD,2023-06-06 19:12:24,15.08846495,9.59e-05,53.2178,349.2513,75.3196,284.7903,4.0831e-05,3.62e-06,0.0,0 STARLINK-4033,1 52702U 22053AY  23157.80028118  .00000362  00000-0  40831-4 0  9995,2 52702  53.2178 349.2513 0000959  75.3196 284.7903 15.08846495 59080,6917.861,95.437,540.389,539.062,0.0
52702.0,STARLINK-4033,PAYLOAD,2023-06-06 22:23:10,15.08851355,8.82e-05,53.2176,348.6552,87.5737,272.5356,7.9153e-05,9.73e-06,0.0,0 STARLINK-4033,1 52702U 22053AY  23157.93275592  .00000973  00000-0  79153-4 0  9996,2 52702  53.2176 348.6552 0000882  87.5737 272.5356 15.08851355 58699,6917.846,95.437,540.321,539.101,0.0
52702.0,STARLINK-4033,PAYLOAD,2023-06-07 12:41:39,15.08838285,7.65e-05,53.2182,345.9797,77.6369,282.4708,1.7139e-05,-1.5e-07,0.0,0 STARLINK-4033,1 52702U 22053AY  23158.52892664 -.00000015  00000-0  17139-4 0  9991,2 52702  53.2182 345.9797 0000765  77.6369 282.4708 15.08838285 59192,6917.886,95.438,540.28,539.221,0.0
52702.0,STARLINK-4033,PAYLOAD,2023-06-07 19:03:11,15.08844352,9.91e-05,53.2178,344.7907,77.553,282.5573,7.1287e-05,8.47e-06,0.0,0 STARLINK-4033,1 52702U 22053AY  23158.79388124  .00000847  00000-0  71287-4 0  9997,2 52702  53.2178 344.7907 0000991  77.5530 282.5573 15.08844352 58829,6917.867,95.437,540.418,539.047,0.0
52702.0,STARLINK-4033,PAYLOAD,2023-06-08 12:32:26,15.08836997,0.0001068,53.2177,341.5205,78.812,281.2992,2.9535e-05,1.82e-06,0.0,0 STARLINK-4033,1 52702U 22053AY  23159.52252722  .00000182  00000-0  29535-4 0  9994,2 52702  53.2177 341.5205 0001068  78.8120 281.2992 15.08836997 59344,6917.89,95.438,540.493,539.016,0.0
52702.0,STARLINK-4033,PAYLOAD,2023-06-08 18:53:58,15.08845095,0.0001046,53.2187,340.3289,83.3353,276.7758,3.8721e-05,3.29e-06,0.0,0 STARLINK-4033,1 52702U 22053AY  23159.78748157  .00000329  00000-0  38721-4 0  9994,2 52702  53.2187 340.3289 0001046  83.3353 276.7758 15.08845095 58975,6917.865,95.437,540.453,539.006,0.0
52702.0,STARLINK-4033,PAYLOAD,2023-06-09 12:23:13,15.0883596,0.0001023,53.2188,337.0628,92.5708,267.5401,3.6481e-05,2.93e-06,0.0,0 STARLINK-4033,1 52702U 22053AY  23160.51612839  .00000293  00000-0  36481-4 0  9995,2 52702  53.2188 337.0628 0001023  92.5708 267.5401 15.08835960 59498,6917.893,95.438,540.465,539.05,0.0
52702.0,STARLINK-4033,PAYLOAD,2023-06-09 18:44:45,15.08838743,0.0001025,53.2189,335.8733,91.5191,268.5919,4.5696e-05,4.4e-06,0.0,0 STARLINK-4033,1 52702U 22053AY  23160.78108678  .00000440  00000-0  45696-4 0  9997,2 52702  53.2189 335.8733 0001025  91.5191 268.5919 15.08838743 59126,6917.884,95.438,540.458,539.04,0.0
52702.0,STARLINK-4033,PAYLOAD,2023-06-10 04:17:05,15.08829393,0.0001494,53.2176,334.0832,82.4297,277.6865,3.1167e-06,-2.38e-06,0.0,0 STARLINK-4033,1 52702U 22053AY  23161.17853581 -.00000238  00000-0  31167-5 0  9996,2 52702  53.2176 334.0832 0001494  82.4297 277.6865 15.08829393 59187,6917.913,95.438,540.811,538.744,0.0
52702.0,STARLINK-4033,PAYLOAD,2023-06-10 10:38:37,15.08832217,0.0001317,53.2181,332.8923,77.8764,282.2375,7.2165e-05,8.61e-06,0.0,0 STARLINK-4033,1 52702U 22053AY  23161.44349304  .00000861  00000-0  72165-4 0  9992,2 52702  53.2181 332.8923 0001317  77.8764 282.2375 15.08832217 59638,6917.904,95.438,540.68,538.858,0.0
52702.0,STARLINK-4033,PAYLOAD,2023-06-10 18:35:32,15.08841698,8.81e-05,53.2185,331.4099,98.3199,261.7893,7.8391e-05,9.6e-06,0.0,0 STARLINK-4033,1 52702U 22053AY  23161.77468592  .00000960  00000-0  78391-4 0  9996,2 52702  53.2185 331.4099 0000881  98.3199 261.7893 15.08841698 59276,6917.875,95.437,540.35,539.131,0.0
52702.0,STARLINK-4033,PAYLOAD,2023-06-11 13:40:11,15.08834966,0.0001055,53.2176,327.8404,87.1821,272.9292,9.4326e-05,1.214e-05,0.0,0 STARLINK-4033,1 52702U 22053AY  23162.56957199  .00001214  00000-0  94326-4 0  9999,2 52702  53.2176 327.8404 0001055  87.1821 272.9292 15.08834966 59803,6917.896,95.438,540.491,539.031,0.0
52702.0,STARLINK-4033,PAYLOAD,2023-06-11 20:01:43,15.08843666,0.0001139,53.2188,326.6524,72.7423,287.3693,0.00010762,1.426e-05,0.0,0 STARLINK-4033,1 52702U 22053AY  23162.83452705  .00001426  00000-0  10762-3 0  9998,2 52702  53.2188 326.6524 0001139  72.7423 287.3693 15.08843666 59843,6917.869,95.437,540.522,538.946,0.0
52702.0,STARLINK-4033,PAYLOAD,2023-06-12 03:58:38,15.08842311,0.0001084,53.2178,325.1645,85.1881,274.9235,4.338e-05,4.03e-06,0.0,0 STARLINK-4033,1 52702U 22053AY  23163.16572878  .00000403  00000-0  43380-4 0  9996,2 52702  53.2178 325.1645 0001084  85.1881 274.9235 15.08842311 59890,6917.873,95.437,540.488,538.988,0.0
52702.0,STARLINK-4033,PAYLOAD,2023-06-13 03:49:26,15.08841153,0.0001046,53.218,320.7021,77.2294,282.8815,4.7832e-05,4.74e-06,0.0,0 STARLINK-4033,1 52702U 22053AY  23164.15933098  .00000474  00000-0  47832-4 0  9995,2 52702  53.2180 320.7021 0001046  77.2294 282.8815 15.08841153 60044,6917.877,95.437,540.465,539.018,0.0
52702.0,STARLINK-4033,PAYLOAD,2023-06-14 10:01:45,15.08846722,0.000142,53.2186,315.0562,73.0246,287.0901,3.7842e-05,3.14e-06,0.0,0 STARLINK-4033,1 52702U 22053AY  23165.41788975  .00000314  00000-0  37842-4 0  9990,2 52702  53.2186 315.0562 0001420  73.0246 287.0901 15.08846722 59828,6917.86,95.437,540.707,538.743,0.0
52702.0,STARLINK-4033,PAYLOAD,2023-06-14 19:34:04,15.0884839,0.0001211,53.2176,313.2717,72.5453,287.5671,6.2706e-05,7.1e-06,0.0,0 STARLINK-4033,1 52702U 22053AY  23165.81532661  .00000710  00000-0  62706-4 0  9990,2 52702  53.2176 313.2717 0001211  72.5453 287.5671 15.08848390 60296,6917.855,95.437,540.557,538.882,0.0
52702.0,STARLINK-4033,PAYLOAD,2023-06-15 09:52:32,15.08838874,0.0001229,53.2173,310.5951,72.0139,288.0987,6.2329e-05,7.04e-06,0.0,0 STARLINK-4033,1 52702U 22053AY  23166.41149232  .00000704  00000-0  62329-4 0  9999,2 52702  53.2173 310.5951 0001229  72.0139 288.0987 15.08838874 59973,6917.884,95.438,540.599,538.899,0.0
52702.0,STARLINK-4033,PAYLOAD,2023-06-15 13:03:19,15.08840668,0.0001146,53.2173,309.9992,75.5505,284.5614,7.2997e-05,8.74e-06,0.0,0 STARLINK-4033,1 52702U 22053AY  23166.54397068  .00000874  00000-0  72997-4 0  9995,2 52702  53.2173 309.9992 0001146  75.5505 284.5614 15.08840668 60405,6917.878,95.438,540.536,538.951,0.0
52702.0,STARLINK-4033,PAYLOAD,2023-06-15 16:14:05,15.0884464,0.0001111,53.2175,309.4047,72.7014,287.4099,7.1235e-05,8.46e-06,0.0,0 STARLINK-4033,1 52702U 22053AY  23166.67644793  .00000846  00000-0  71235-4 0  9992,2 52702  53.2175 309.4047 0001111  72.7014 287.4099 15.08844640 60424,6917.866,95.437,540.5,538.963,0.0
52702.0,STARLINK-4033,PAYLOAD,2023-06-16 12:54:05,15.08848115,0.0001122,53.2175,305.5393,80.9604,279.1515,8.2342e-05,1.023e-05,0.0,0 STARLINK-4033,1 52702U 22053AY  23167.53756371  .00001023  00000-0  82342-4 0  9993,2 52702  53.2175 305.5393 0001122  80.9604 279.1515 15.08848115 60559,6917.856,95.437,540.497,538.944,0.0
52702.0,STARLINK-4033,PAYLOAD,2023-06-16 16:04:51,15.08850683,9.68e-05,53.2177,304.9445,79.7148,280.3953,0.00016814,2.39e-05,0.0,0 STARLINK-4033,1 52702U 22053AY  23167.67003948  .00002390  00000-0  16814-3 0  9991,2 52702  53.2177 304.9445 0000968  79.7148 280.3953 15.08850683 60168,6917.848,95.437,540.382,539.043,0.0
52702.0,STARLINK-4033,PAYLOAD,2023-06-16 19:15:37,15.08855777,0.0001033,53.2176,304.3494,85.7747,274.3364,0.0001517,2.128e-05,0.0,0 STARLINK-4033,1 52702U 22053AY  23167.80251559  .00002128  00000-0  15170-3 0  9992,2 52702  53.2176 304.3494 0001033  85.7747 274.3364 15.08855777 60596,6917.832,95.437,540.412,538.983,0.0
52702.0,STARLINK-4033,PAYLOAD,2023-06-17 01:37:11,15.08834362,0.0001392,53.2165,303.1583,75.9641,284.1505,-8.5802e-05,-1.653e-05,0.0,0 STARLINK-4033,1 52702U 22053AY  23168.06749069 -.00001653  00000-0 -85802-4 0  9993,2 52702  53.2165 303.1583 0001392  75.9641 284.1505 15.08834362 60225,6917.898,95.438,540.726,538.8,0.0
52702.0,STARLINK-4033,PAYLOAD,2023-06-17 09:34:07,15.08823572,0.0001111,53.217,301.6733,100.2059,259.9059,-0.00017163,-3.017e-05,0.0,0 STARLINK-4033,1 52702U 22053AY  23168.39869723 -.00003017  00000-0 -17163-3 0  9999,2 52702  53.2170 301.6733 0001111 100.2059 259.9059 15.08823572 60275,6917.931,95.439,540.564,539.027,0.0
